{
  "type": "FeatureCollection",
  "features": [
    {
      "type": "Feature",
      "properties": {
        "kabupaten": "Aceh Utara",
        "depth_m": 3.2,
        "luas_ha": 4500,
        "severity": "tinggi"
      },
      "geometry": {
        "type": "Polygon",
        "coordinates": [
          [
            [
              96.7319713399229,
              4.301250537761133
            ],
            [
              97.08624853408153,
              4.311160536907441
            ],
            [
              97.0631764392918,
              4.566165025628854
            ],
            [
              96.74460897838524,
              4.595653058368529
            ],
            [
              96.72109609098426,
              4.301489860971904
            ]
          ]
        ]
      }
    },
    {
      "type": "Feature",
      "properties": {
        "kabupaten": "Aceh Timur",
        "depth_m": 2.1,
        "luas_ha": 2300,
        "severity": "sedang"
      },
      "geometry": {
        "type": "Polygon",
        "coordinates": [
          [
            [
              97.31093189874018,
              3.025267764405168
            ],
            [
              97.5986732015158,
              3.0099418825343323
            ],
            [
              97.56750577811101,
              3.272752925969839
            ],
            [
              97.31102203110203,
              3.2705367158062044
            ],
            [
              97.3404715228339,
              3.000324937983903
            ]
          ]
        ]
      }
    },
    {
      "type": "Feature",
      "properties": {
        "kabupaten": "Deli Serdang",
        "depth_m": 1.8,
        "luas_ha": 3100,
        "severity": "sedang"
      },
      "geometry": {
        "type": "Polygon",
        "coordinates": [
          [
            [
              98.84029096259164,
              3.834906969749411
            ],
            [
              99.1829874741741,
              3.807773974990589
            ],
            [
              99.15213934638966,
              4.083170272744368
            ],
            [
              98.804637292169,
              4.095164181158326
            ],
            [
              98.84237471831737,
              3.8301863015683444
            ]
          ]
        ]
      }
    },
    {
      "type": "Feature",
      "properties": {
        "kabupaten": "Langkat",
        "depth_m": 2.5,
        "luas_ha": 2800,
        "severity": "sedang"
      },
      "geometry": {
        "type": "Polygon",
        "coordinates": [
          [
            [
              98.54035641366372,
              3.536486589334691
            ],
            [
              98.87318859542727,
              3.5486557881989684
            ],
            [
              98.88107328113959,
              3.7723979684363385
            ],
            [
              98.54147023321265,
              3.7690740123817874
            ],
            [
              98.54308534501554,
              3.528867607262838
            ]
          ]
        ]
      }
    },
    {
      "type": "Feature",
      "properties": {
        "kabupaten": "Tapanuli Utara",
        "depth_m": 1.5,
        "luas_ha": 1900,
        "severity": "sedang"
      },
      "geometry": {
        "type": "Polygon",
        "coordinates": [
          [
            [
              98.93522859181076,
              2.002291219182783
            ],
            [
              99.28860508621742,
              2.0144693981801054
            ],
            [
              99.29601040115382,
              2.388360455681948
            ],
            [
              98.9050500714705,
              2.3861013198444954
            ],
            [
              98.93178422221322,
              2.0182416089485042
            ]
          ]
        ]
      }
    },
    {
      "type": "Feature",
      "properties": {
        "kabupaten": "Pasaman",
        "depth_m": 2.8,
        "luas_ha": 3400,
        "severity": "tinggi"
      },
      "geometry": {
        "type": "Polygon",
        "coordinates": [
          [
            [
              99.71850904835584,
              0.8104753515385744
            ],
            [
              100.08665110889754,
              0.8468327293856247
            ],
            [
              100.06759823073766,
              1.1695434497166506
            ],
            [
              99.7085569324099,
              1.1635436601024824
            ],
            [
              99.7081701246881,
              0.8189727720878824
            ]
          ]
        ]
      }
    },
    {
      "type": "Feature",
      "properties": {
        "kabupaten": "Padang Pariaman",
        "depth_m": 3.5,
        "luas_ha": 5200,
        "severity": "tinggi"
      },
      "geometry": {
        "type": "Polygon",
        "coordinates": [
          [
            [
              100.04947616753184,
              -0.6680000120072953
            ],
            [
              100.37215251281127,
              -0.6657692874505062
            ],
            [
              100.35785740399052,
              -0.3387999955773122
            ],
            [
              100.0114524035982,
              -0.30160501219520186
            ],
            [
              100.01577265240296,
              -0.6866129562012149
            ]
          ]
        ]
      }
    },
    {
      "type": "Feature",
      "properties": {
        "kabupaten": "Pesisir Selatan",
        "depth_m": 1.9,
        "luas_ha": 2100,
        "severity": "sedang"
      },
      "geometry": {
        "type": "Polygon",
        "coordinates": [
          [
            [
              100.31054914217931,
              -1.1528545142832471
            ],
            [
              100.65618161867637,
              -1.184266105960076
            ],
            [
              100.66722806673526,
              -0.8197815950530333
            ],
            [
              100.34572737948703,
              -0.82294259262937
            ],
            [
              100.3132440083249,
              -1.1876686246153008
            ]
          ]
        ]
      }
    },
    {
      "type": "Feature",
      "properties": {
        "kabupaten": "Dharmasraya",
        "depth_m": 2.2,
        "luas_ha": 2600,
        "severity": "sedang"
      },
      "geometry": {
        "type": "Polygon",
        "coordinates": [
          [
            [
              101.32806840670816,
              -1.7868629195738532
            ],
            [
              101.67077070048883,
              -1.7551088558198762
            ],
            [
              101.68002997474298,
              -1.4109660379578641
            ],
            [
              101.34987688032476,
              -1.4254763146838232
            ],
            [
              101.30454547060869,
              -1.7976441812287633
            ]
          ]
        ]
      }
    }
  ]
}