{
  "type": "FeatureCollection",
  "features": [
    {
      "type": "Feature",
      "properties": {
        "nama": "Aceh",
        "provinsi": "Aceh",
        "kode": "ID-AC"
      },
      "geometry": {
        "type": "Polygon",
        "coordinates": [
          [
            [
              95.0,
              5.8
            ],
            [
              97.5,
              5.8
            ],
            [
              97.5,
              3.5
            ],
            [
              96.5,
              3.2
            ],
            [
              95.8,
              3.8
            ],
            [
              95.0,
              4.5
            ],
            [
              95.0,
              5.8
            ]
          ]
        ]
      }
    }
  ]
}