{
  "type": "FeatureCollection",
  "features": [
    {
      "type": "Feature",
      "properties": {
        "name": "Sumatera",
        "pulau": "Sumatera"
      },
      "geometry": {
        "type": "Polygon",
        "coordinates": [
          [
            [
              95.0,
              5.8
            ],
            [
              96.5,
              5.5
            ],
            [
              97.5,
              5.2
            ],
            [
              98.5,
              4.8
            ],
            [
              99.2,
              4.2
            ],
            [
              99.8,
              3.5
            ],
            [
              100.2,
              2.8
            ],
            [
              100.5,
              2.0
            ],
            [
              100.8,
              1.2
            ],
            [
              101.2,
              0.5
            ],
            [
              101.6,
              -0.2
            ],
            [
              102.0,
              -1.0
            ],
            [
              102.5,
              -1.8
            ],
            [
              103.0,
              -2.5
            ],
            [
              103.8,
              -3.2
            ],
            [
              104.5,
              -4.0
            ],
            [
              105.2,
              -4.8
            ],
            [
              105.8,
              -5.5
            ],
            [
              105.4,
              -5.8
            ],
            [
              104.8,
              -5.5
            ],
            [
              104.0,
              -4.8
            ],
            [
              103.2,
              -4.0
            ],
            [
              102.5,
              -3.3
            ],
            [
              101.8,
              -2.8
            ],
            [
              101.2,
              -2.0
            ],
            [
              100.5,
              -1.2
            ],
            [
              100.0,
              -0.5
            ],
            [
              99.5,
              0.2
            ],
            [
              99.0,
              1.0
            ],
            [
              98.5,
              1.8
            ],
            [
              98.0,
              2.5
            ],
            [
              97.5,
              3.2
            ],
            [
              97.0,
              3.8
            ],
            [
              96.5,
              4.2
            ],
            [
              95.8,
              4.8
            ],
            [
              95.3,
              5.3
            ],
            [
              95.0,
              5.8
            ]
          ]
        ]
      }
    }
  ]
}