{
  "type": "FeatureCollection",
  "features": [
    {
      "type": "Feature",
      "properties": {
        "kabupaten": "Aceh Utara",
        "fase": "sebelum",
        "nilai": 0.9,
        "warna": "#4CAF50",
        "deskripsi": "Kondisi normal"
      },
      "geometry": {
        "type": "Polygon",
        "coordinates": [
          [
            [
              96.70328947391052,
              4.318823381251092
            ],
            [
              97.0762376190691,
              4.31266479900399
            ],
            [
              97.09809416881544,
              4.588551421404803
            ],
            [
              96.72988364140721,
              4.584126569647026
            ],
            [
              96.72913235132842,
              4.3258233910670345
            ]
          ]
        ]
      }
    },
    {
      "type": "Feature",
      "properties": {
        "kabupaten": "Langkat",
        "fase": "sebelum",
        "nilai": 0.85,
        "warna": "#4CAF50",
        "deskripsi": "Kondisi normal"
      },
      "geometry": {
        "type": "Polygon",
        "coordinates": [
          [
            [
              98.50034443065829,
              3.5216216545808057
            ],
            [
              98.9795486889292,
              3.516109109912264
            ],
            [
              98.99199524430142,
              3.8807711460426058
            ],
            [
              98.50334656520788,
              3.886957042479927
            ],
            [
              98.51361171118988,
              3.5286144778256325
            ]
          ]
        ]
      }
    },
    {
      "type": "Feature",
      "properties": {
        "kabupaten": "Madina",
        "fase": "sebelum",
        "nilai": 0.88,
        "warna": "#4CAF50",
        "deskripsi": "Kondisi normal"
      },
      "geometry": {
        "type": "Polygon",
        "coordinates": [
          [
            [
              99.52627558821135,
              1.5079016715225326
            ],
            [
              99.98498241660849,
              1.505359556415904
            ],
            [
              99.97262116481966,
              1.973884442904897
            ],
            [
              99.50895334374346,
              1.98083151515402
            ],
            [
              99.51826910634314,
              1.504585178056489
            ]
          ]
        ]
      }
    },
    {
      "type": "Feature",
      "properties": {
        "kabupaten": "Pd Pariaman",
        "fase": "sebelum",
        "nilai": 0.92,
        "warna": "#4CAF50",
        "deskripsi": "Kondisi normal"
      },
      "geometry": {
        "type": "Polygon",
        "coordinates": [
          [
            [
              100.02287532400226,
              -0.6838186290964112
            ],
            [
              100.47664120564109,
              -0.6840893898341446
            ],
            [
              100.49998284311616,
              -0.2097246817101402
            ],
            [
              100.00058430227158,
              -0.22787295848793854
            ],
            [
              100.0263616563347,
              -0.6750500341191645
            ]
          ]
        ]
      }
    }
  ]
}