{
  "type": "FeatureCollection",
  "features": [
    {
      "type": "Feature",
      "properties": {
        "kabupaten": "Aceh Utara",
        "fase": "pemulihan",
        "nilai": 0.3,
        "warna": "#42A5F5",
        "deskripsi": "Pemulihan awal"
      },
      "geometry": {
        "type": "Polygon",
        "coordinates": [
          [
            [
              96.70010637067264,
              4.323133576690589
            ],
            [
              97.08088659868095,
              4.30785865787303
            ],
            [
              97.07776307274956,
              4.583449587366208
            ],
            [
              96.71283060756943,
              4.599709909011749
            ],
            [
              96.70225731580221,
              4.326493191799004
            ]
          ]
        ]
      }
    },
    {
      "type": "Feature",
      "properties": {
        "kabupaten": "Langkat",
        "fase": "pemulihan",
        "nilai": 0.25,
        "warna": "#42A5F5",
        "deskripsi": "Pemulihan awal"
      },
      "geometry": {
        "type": "Polygon",
        "coordinates": [
          [
            [
              98.52711785714679,
              3.5163677086761655
            ],
            [
              98.87496214940343,
              3.517475286994694
            ],
            [
              98.89555718643298,
              3.896176634421536
            ],
            [
              98.5092477504979,
              3.873030555337722
            ],
            [
              98.52388366914664,
              3.525821077460027
            ]
          ]
        ]
      }
    },
    {
      "type": "Feature",
      "properties": {
        "kabupaten": "Madina",
        "fase": "pemulihan",
        "nilai": 0.28,
        "warna": "#42A5F5",
        "deskripsi": "Pemulihan awal"
      },
      "geometry": {
        "type": "Polygon",
        "coordinates": [
          [
            [
              99.5269677390958,
              1.5063022961501926
            ],
            [
              99.99251410782331,
              1.5030838086501537
            ],
            [
              99.97659651274385,
              1.9734759589564697
            ],
            [
              99.51219132169496,
              1.9813801546954786
            ],
            [
              99.50463660014996,
              1.5278964304708103
            ]
          ]
        ]
      }
    },
    {
      "type": "Feature",
      "properties": {
        "kabupaten": "Pd Pariaman",
        "fase": "pemulihan",
        "nilai": 0.32,
        "warna": "#42A5F5",
        "deskripsi": "Pemulihan awal"
      },
      "geometry": {
        "type": "Polygon",
        "coordinates": [
          [
            [
              100.0259381708866,
              -0.670713819012071
            ],
            [
              100.3756768484018,
              -0.6735575138601002
            ],
            [
              100.39925640914306,
              -0.32209693415265245
            ],
            [
              100.0099655640384,
              -0.32792447658144974
            ],
            [
              100.02406705416811,
              -0.6740780791487416
            ]
          ]
        ]
      }
    }
  ]
}