{
  "type": "FeatureCollection",
  "features": [
    {
      "type": "Feature",
      "properties": {
        "kabupaten": "Aceh Utara",
        "fase": "puncak",
        "nilai": 1.0,
        "warna": "#E53935",
        "deskripsi": "Puncak bencana"
      },
      "geometry": {
        "type": "Polygon",
        "coordinates": [
          [
            [
              96.5218722754838,
              4.120200936418799
            ],
            [
              97.27047504365902,
              4.102952536134558
            ],
            [
              97.28792136153693,
              4.789820921838151
            ],
            [
              96.52585017609059,
              4.7925403099823916
            ],
            [
              96.50570626725323,
              4.113458406434994
            ]
          ]
        ]
      }
    },
    {
      "type": "Feature",
      "properties": {
        "kabupaten": "Aceh Timur",
        "fase": "puncak",
        "nilai": 0.95,
        "warna": "#E53935",
        "deskripsi": "Puncak bencana"
      },
      "geometry": {
        "type": "Polygon",
        "coordinates": [
          [
            [
              97.21265644919504,
              2.908356354340008
            ],
            [
              97.69250580656355,
              2.9276979679782804
            ],
            [
              97.6867060776484,
              3.374159526857145
            ],
            [
              97.2165097593735,
              3.3984823501142536
            ],
            [
              97.22997847405239,
              2.9250808275523985
            ]
          ]
        ]
      }
    },
    {
      "type": "Feature",
      "properties": {
        "kabupaten": "Langkat+DS",
        "fase": "puncak",
        "nilai": 1.0,
        "warna": "#E53935",
        "deskripsi": "Puncak bencana"
      },
      "geometry": {
        "type": "Polygon",
        "coordinates": [
          [
            [
              98.32906988771855,
              3.3277910094902436
            ],
            [
              99.17453912796758,
              3.304989333318117
            ],
            [
              99.18543076623648,
              4.093587581024024
            ],
            [
              98.31203120877647,
              4.098240938000834
            ],
            [
              98.3113691935693,
              3.3295592653133914
            ]
          ]
        ]
      }
    },
    {
      "type": "Feature",
      "properties": {
        "kabupaten": "Tap. Utara",
        "fase": "puncak",
        "nilai": 0.98,
        "warna": "#E53935",
        "deskripsi": "Puncak bencana"
      },
      "geometry": {
        "type": "Polygon",
        "coordinates": [
          [
            [
              98.80795609174517,
              2.823522118058457
            ],
            [
              99.48634974897982,
              2.8126902245797045
            ],
            [
              99.4712804707742,
              3.4701373193152185
            ],
            [
              98.81667304970216,
              3.4784477517411103
            ],
            [
              98.80464390475822,
              2.8089012347648366
            ]
          ]
        ]
      }
    },
    {
      "type": "Feature",
      "properties": {
        "kabupaten": "Madina",
        "fase": "puncak",
        "nilai": 1.0,
        "warna": "#E53935",
        "deskripsi": "Puncak bencana"
      },
      "geometry": {
        "type": "Polygon",
        "coordinates": [
          [
            [
              99.32906128094908,
              1.3173754087244878
            ],
            [
              100.18373414395877,
              1.322439266811372
            ],
            [
              100.19828504181278,
              2.182474672166231
            ],
            [
              99.31508551148758,
              2.1744184032385516
            ],
            [
              99.30472298183818,
              1.3288233670982335
            ]
          ]
        ]
      }
    },
    {
      "type": "Feature",
      "properties": {
        "kabupaten": "Pd Pariaman",
        "fase": "puncak",
        "nilai": 0.97,
        "warna": "#E53935",
        "deskripsi": "Puncak bencana"
      },
      "geometry": {
        "type": "Polygon",
        "coordinates": [
          [
            [
              99.80240334395721,
              -0.8944252511705784
            ],
            [
              100.6821489468065,
              -0.8797436233918773
            ],
            [
              100.69294388314998,
              -0.0035965984184137254
            ],
            [
              99.82670861942388,
              -0.007386460433658745
            ],
            [
              99.817835574606,
              -0.8814185546900369
            ]
          ]
        ]
      }
    },
    {
      "type": "Feature",
      "properties": {
        "kabupaten": "Agam",
        "fase": "puncak",
        "nilai": 0.92,
        "warna": "#E53935",
        "deskripsi": "Puncak bencana"
      },
      "geometry": {
        "type": "Polygon",
        "coordinates": [
          [
            [
              100.21257674746008,
              -1.2824898313212634
            ],
            [
              100.78431651853404,
              -1.2719588122679073
            ],
            [
              100.79387222401729,
              -0.7214857540236824
            ],
            [
              100.20716057857848,
              -0.7118735754037376
            ],
            [
              100.2201507066888,
              -1.2910000876060372
            ]
          ]
        ]
      }
    }
  ]
}