{
  "type": "FeatureCollection",
  "features": [
    {
      "type": "Feature",
      "properties": {
        "kabupaten": "Aceh Utara",
        "fase": "sinyal",
        "nilai": 0.6,
        "warna": "#FFF176",
        "deskripsi": "Curah hujan ekstrem"
      },
      "geometry": {
        "type": "Polygon",
        "coordinates": [
          [
            [
              96.60922542376207,
              4.201737754994825
            ],
            [
              97.17365971202388,
              4.22840848335894
            ],
            [
              97.19743039643797,
              4.685420286100502
            ],
            [
              96.60207637555405,
              4.677181935042284
            ],
            [
              96.62297503287921,
              4.203851743934993
            ]
          ]
        ]
      }
    },
    {
      "type": "Feature",
      "properties": {
        "kabupaten": "Langkat",
        "fase": "sinyal",
        "nilai": 0.55,
        "warna": "#FFF176",
        "deskripsi": "Curah hujan ekstrem"
      },
      "geometry": {
        "type": "Polygon",
        "coordinates": [
          [
            [
              98.41425847134296,
              3.4164941078048483
            ],
            [
              99.0920483011318,
              3.4261729912325576
            ],
            [
              99.08730586179396,
              3.9936460538367373
            ],
            [
              98.41617888266339,
              3.978102067927301
            ],
            [
              98.4060345319017,
              3.4093514887390266
            ]
          ]
        ]
      }
    },
    {
      "type": "Feature",
      "properties": {
        "kabupaten": "Tap. Utara",
        "fase": "sinyal",
        "nilai": 0.5,
        "warna": "#FFF176",
        "deskripsi": "Curah hujan ekstrem"
      },
      "geometry": {
        "type": "Polygon",
        "coordinates": [
          [
            [
              98.82985448069982,
              2.9194963417291837
            ],
            [
              99.38685699748257,
              2.9155272752310677
            ],
            [
              99.39636987412396,
              3.393259079889053
            ],
            [
              98.81014256686441,
              3.382350738446283
            ],
            [
              98.8069034419779,
              2.9066065215335466
            ]
          ]
        ]
      }
    },
    {
      "type": "Feature",
      "properties": {
        "kabupaten": "Madina",
        "fase": "sinyal",
        "nilai": 0.58,
        "warna": "#FFF176",
        "deskripsi": "Curah hujan ekstrem"
      },
      "geometry": {
        "type": "Polygon",
        "coordinates": [
          [
            [
              99.40212979258028,
              1.4189330887181029
            ],
            [
              100.09313174648565,
              1.4271626003901838
            ],
            [
              100.07421093799238,
              2.0978742795033405
            ],
            [
              99.40714013903107,
              2.0799306666511117
            ],
            [
              99.40642710422112,
              1.4039693554617507
            ]
          ]
        ]
      }
    },
    {
      "type": "Feature",
      "properties": {
        "kabupaten": "Pd Pariaman",
        "fase": "sinyal",
        "nilai": 0.52,
        "warna": "#FFF176",
        "deskripsi": "Curah hujan ekstrem"
      },
      "geometry": {
        "type": "Polygon",
        "coordinates": [
          [
            [
              99.92806542721742,
              -0.7828687072002415
            ],
            [
              100.58581986921064,
              -0.7764614172712775
            ],
            [
              100.575775090067,
              -0.10571229743085633
            ],
            [
              99.90290792442687,
              -0.11293153547219133
            ],
            [
              99.9127073586906,
              -0.7859892599588998
            ]
          ]
        ]
      }
    }
  ]
}