{
  "type": "FeatureCollection",
  "features": [
    {
      "type": "Feature",
      "properties": {
        "kabupaten": "Aceh Utara",
        "fase": "surut",
        "nilai": 0.5,
        "warna": "#FF9800",
        "deskripsi": "Mulai surut"
      },
      "geometry": {
        "type": "Polygon",
        "coordinates": [
          [
            [
              96.60948531588815,
              4.222555934772433
            ],
            [
              97.1978237065652,
              4.213748565678558
            ],
            [
              97.17004636677437,
              4.670117106564347
            ],
            [
              96.60219782163298,
              4.693605370631989
            ],
            [
              96.6079560124425,
              4.227997781339812
            ]
          ]
        ]
      }
    },
    {
      "type": "Feature",
      "properties": {
        "kabupaten": "Langkat",
        "fase": "surut",
        "nilai": 0.45,
        "warna": "#FF9800",
        "deskripsi": "Mulai surut"
      },
      "geometry": {
        "type": "Polygon",
        "coordinates": [
          [
            [
              98.4264259252106,
              3.426378107274536
            ],
            [
              99.08891418733782,
              3.404732404970717
            ],
            [
              99.0749876513608,
              3.978893802247379
            ],
            [
              98.41835033297178,
              3.970383008091055
            ],
            [
              98.41961928953133,
              3.4002346932145646
            ]
          ]
        ]
      }
    },
    {
      "type": "Feature",
      "properties": {
        "kabupaten": "Madina",
        "fase": "surut",
        "nilai": 0.4,
        "warna": "#FF9800",
        "deskripsi": "Mulai surut"
      },
      "geometry": {
        "type": "Polygon",
        "coordinates": [
          [
            [
              99.42451312405348,
              1.4089813625659993
            ],
            [
              100.08009833855101,
              1.428167900117813
            ],
            [
              100.0959712665682,
              2.096537139887427
            ],
            [
              99.40321107933129,
              2.0834032907734557
            ],
            [
              99.40817044636945,
              1.4181448948109066
            ]
          ]
        ]
      }
    },
    {
      "type": "Feature",
      "properties": {
        "kabupaten": "Pd Pariaman",
        "fase": "surut",
        "nilai": 0.48,
        "warna": "#FF9800",
        "deskripsi": "Mulai surut"
      },
      "geometry": {
        "type": "Polygon",
        "coordinates": [
          [
            [
              99.92152836561417,
              -0.7938920806301765
            ],
            [
              100.58097286123345,
              -0.7920804829510878
            ],
            [
              100.58534404443552,
              -0.1271600947323797
            ],
            [
              99.92538311139886,
              -0.102768954031382
            ],
            [
              99.91270727317692,
              -0.7916995932808325
            ]
          ]
        ]
      }
    }
  ]
}